OBJECT_NAME,OBJECT_ID,EPOCH,MEAN_MOTION,ECCENTRICITY,INCLINATION,RA_OF_ASC_NODE,ARG_OF_PERICENTER,MEAN_ANOMALY,EPHEMERIS_TYPE,CLASSIFICATION_TYPE,NORAD_CAT_ID,ELEMENT_SET_NO,REV_AT_EPOCH,BSTAR,MEAN_MOTION_DOT,MEAN_MOTION_DDOT
IRIDIUM 143,2018-030K,2026-07-20T18:10:51.466368,14.34217885,.00023311,86.3955,276.5247,95.7340,264.4121,0,U,43258,999,43490,.20144864E-4,.76E-6,0
GAOFEN-1 02,2018-031A,2026-07-20T23:32:00.122208,14.76474320,.00015177,98.0505,264.4100,248.4722,111.6326,0,U,43259,999,44768,-.16815844E-4,-.169E-5,0
GAOFEN-1 03,2018-031B,2026-07-20T23:00:30.826368,14.76467308,.00019477,98.0499,264.2427,357.8383,2.2818,0,U,43260,999,44767,.6243341E-4,.383E-5,0
GAOFEN-1 04,2018-031D,2026-07-20T22:25:36.386688,14.76441395,.00009163,98.0506,264.4136,52.7487,307.3806,0,U,43262,999,44766,.37752991E-4,.211E-5,0
SUPERBIRD-B3,2018-033A,2026-07-20T20:44:34.744992,1.00272063,.00014395,0.0364,249.3090,248.4053,274.0642,0,U,43271,999,3039,0,-.92E-6,0
HYLAS 4,2018-033B,2026-07-20T16:23:18.482784,1.00271617,.00009202,0.0425,247.9188,228.1081,34.7583,0,U,43272,999,3040,0,-.234E-5,0
YAOGAN-31 01A,2018-034A,2026-07-20T22:54:49.614624,13.45463745,.02780519,63.3962,4.3908,7.6056,352.9056,0,U,43275,999,40664,.1011941E-3,-.15E-6,0
YAOGAN-31 01B,2018-034B,2026-07-20T22:56:41.723808,13.45459302,.02780536,63.3964,4.3954,7.5582,352.9505,0,U,43276,999,40676,.79088033E-4,-.31E-6,0
YAOGAN-31 01C,2018-034C,2026-07-20T23:00:58.104576,13.45446467,.0278256,63.3974,3.7564,7.2595,353.2333,0,U,43277,999,40678,.13968221E-3,.14E-6,0
WEINA 1B,2018-034E,2026-07-20T23:20:23.116128,13.45373022,.02779714,63.3967,4.9577,7.9597,352.5705,0,U,43279,999,40675,.43414374E-4,-.58E-6,0
IRNSS-1I,2018-035A,2026-07-19T17:41:38.584032,1.00273777,.00183655,28.8289,73.6878,178.9692,5.3277,0,U,43286,999,3040,0,.63E-6,0
USA 283,2018-036A,2026-07-19T12:06:14.262336,1.00271912,.0000802,0.0121,113.1212,85.3615,54.4575,0,U,43339,999,2561,0,-.322E-5,0
COSMOS 2526,2018-037A,2026-07-20T00:01:48.982368,1.00275110,.00005743,0.0287,96.0594,109.7113,220.5338,0,U,43432,999,3028,0,-.347E-5,0
SENTINEL-3B,2018-039A,2026-07-20T18:45:56.832192,14.26737354,.00012677,98.6231,268.8292,118.6255,241.5053,0,U,43437,999,42891,.32817374E-4,.36E-6,0
ZHUHAI-1 OVS-02,2018-040B,2026-07-20T22:52:13.769760,15.25422536,.00054737,97.0389,217.1875,121.8234,238.3539,0,U,43440,999,45786,.1836437E-3,.4576E-4,0
ZHUHAI-1 OHS-02,2018-040C,2026-07-20T22:02:53.077632,15.26318535,.00114428,97.0365,224.1283,108.3662,251.8823,0,U,43441,999,11942,.20734E-3,.5324E-4,0
USA 285,2018-036E,2026-07-19T21:33:12.664800,1.02112416,.00107601,7.1946,66.5552,168.5108,348.1676,0,U,43445,999,2727,0,-.43E-6,0
USA 286,2018-036F,2026-07-13T19:46:38.790912,1.02118708,.00109281,7.1767,66.5998,167.0328,353.1866,0,U,43446,999,2719,0,.26E-6,0
APSTAR-6C,2018-041A,2026-07-19T16:27:15.628320,1.00269212,.0000533,0.0842,293.1098,294.7366,90.4374,0,U,43450,999,3013,0,-.322E-5,0
GAOFEN-5 01,2018-043A,2026-07-20T21:40:19.288128,14.60625801,.00017567,98.4595,174.2023,19.3304,340.7962,0,U,43461,999,43661,.49628773E-4,.192E-5,0
BANGABANDHUSAT-1,2018-044A,2026-07-20T15:24:24.130944,1.00272169,.00019569,0.0361,96.9206,23.2876,168.4072,0,U,43463,999,3004,0,-.363E-5,0
GRACE-FO 1,2018-047A,2026-07-20T22:07:01.166592,15.38469996,.00098808,88.9927,193.3133,356.7004,3.4185,0,U,43476,999,45498,.71571042E-4,.2751E-4,0
GRACE-FO 2,2018-047B,2026-07-20T22:07:26.458464,15.38469055,.00099038,88.9927,193.3131,356.7446,3.3743,0,U,43477,999,45498,.72530939E-4,.2788E-4,0
IRIDIUM 161,2018-047C,2026-07-20T17:24:10.906272,14.43277404,.00021628,86.4456,74.4444,80.7439,279.4006,0,U,43478,999,42997,.4184823E-4,.161E-5,0
IRIDIUM 152,2018-047D,2026-07-20T17:31:34.237632,14.34217385,.00019608,86.3927,74.3032,84.0371,276.1048,0,U,43479,999,42729,-.28594762E-4,-.6E-6,0
IRIDIUM 147,2018-047E,2026-07-20T21:01:38.236800,14.34218010,.0002297,86.3932,74.2482,87.5600,272.5859,0,U,43480,999,42731,.21310846E-4,.79E-6,0
IRIDIUM 110,2018-047F,2026-07-20T21:10:46.094016,14.34217536,.00020188,86.3936,74.3385,78.2279,281.9143,0,U,43481,999,42730,.67401992E-4,.209E-5,0
IRIDIUM 162,2018-047G,2026-07-20T22:14:36.681216,14.43280371,.00021848,86.4454,74.2505,86.6280,273.5170,0,U,43482,999,42999,.49746812E-4,.188E-5,0
GAOFEN-6,2018-048A,2026-07-20T22:58:26.173632,14.76387969,.00120172,98.0949,264.6726,65.5929,294.6533,0,U,43484,999,43837,.67703415E-4,.418E-5,0
LUOJIA-1 01,2018-048B,2026-07-20T22:42:49.169952,14.87388747,.00093058,97.8089,279.5926,20.1056,340.0525,0,U,43485,999,43923,.2694592E-4,.189E-5,0
SES-12,2018-049A,2026-07-20T22:08:09.051936,1.00268377,.00007466,0.0115,6.8537,236.3888,122.4799,0,U,43488,999,2975,0,-.269E-5,0
